SL-14 R/B               
1 20262U 89080C   25274.08770352  .00000395  00000+0  11505-3 0  9990
2 20262  82.5875 275.6640 1230356 189.5258 168.0413 12.50352802640200
DELTA 1 R/B             
1 20323U 89089B   25274.07028066  .00000806  00000+0  20926-3 0  9998
2 20323  97.0856 141.7931 0067579 267.0285  92.3178 14.50481627872596
ARIANE 40 R/B           
1 20443U 90005H   25274.11536081  .00000707  00000+0  23924-3 0  9998
2 20443  98.3346 334.3085 0009388 330.9381  29.1284 14.39714520869846
DELTA 2 R/B(1)          
1 20453U 90008B   25273.91075858  .00049608  00000+0  94657-3 0  9993
2 20453  35.6076 128.5390 0124213 236.5799 122.2999 15.38988664901388
COSMOS 2058             
1 20465U 90010A   25274.19871248  .00010368  00000+0  64139-3 0  9990
2 20465  82.4751 204.3324 0009828 153.3395 206.8341 15.09672982918168
SL-14 R/B               
1 20466U 90010B   25273.76094074  .00001219  00000+0  14525-3 0  9996
2 20466  82.5014  57.5645 0021300 105.8654 254.4910 14.83361939904776
SL-14 R/B               
1 20511U 90018B   25274.03004968  .00001074  00000+0  13247-3 0  9998
2 20511  82.5252  12.3129 0015017 256.2563 103.6980 14.81943878898933
HST                     
1 20580U 90037B   25274.06713468  .00014070  00000+0  51294-3 0  9994
2 20580  28.4691  46.6178 0002535 142.6464 217.4307 15.26629054748879
SL-16 R/B               
1 20625U 90046B   25274.07351907 -.00000124  00000+0 -39195-4 0  9995
2 20625  70.9974 273.1262 0014679 197.2174 162.8453 14.14982990825814
COSMOS 2084             
1 20663U 90055A   25274.12940238  .00006625  00000+0  47716-3 0  9991
2 20663  62.7905 159.2758 0044200 165.9933 194.2405 15.04317903912304
SL-6 R/B(2)             
1 20666U 90055D   25274.17229639  .00006387  00000+0  49177-3 0  9992
2 20666  62.7835  75.8858 0012113 239.8980 120.0919 15.02529416914215
SL-8 R/B                
1 20775U 90078B   25273.84293215  .00043974  00000+0  14072-2 0  9990
2 20775  82.9082  34.3275 0388791 189.0511 170.3564 14.81860138785564
SL-8 R/B                
1 21088U 91006B   25274.11427159  .00000033  00000+0  17614-4 0  9993
2 21088  82.9385 288.7538 0023749 120.4849 304.3705 13.77470874742104
OKEAN-3                 
1 21397U 91039A   25274.08502451  .00007268  00000+0  53115-3 0  9999
2 21397  82.5164 131.3367 0014983 148.5627 211.6498 15.03412781841042
COSMOS 2151             
1 21422U 91042A   25274.15300289  .00005427  00000+0  44249-3 0  9998
2 21422  82.4955 237.4195 0010853 233.0728 126.9502 14.99257616839284
SL-14 R/B               
1 21423U 91042B   25273.98247323  .00000973  00000+0  12043-3 0  9996
2 21423  82.4967   9.9411 0018185  49.4295 310.8498 14.81642292829427
ERS-1                   
1 21574U 91050A   25274.02213531  .00000731  00000+0  24927-3 0  9998
2 21574  98.7945 283.2384 0031283 317.5316  42.3450 14.39279120792763
ARIANE 40 R/B           
1 21610U 91050F   25273.96719625  .00000790  00000+0  24995-3 0  9996
2 21610  98.2278 326.9836 0003082 175.5477 184.5741 14.42720448795966
INTERCOSMOS 25          
1 21819U 91086A   25273.72603227  .00004117  00000+0  80335-3 0  9997
2 21819  82.6055  46.6777 1489341 101.6628 275.4876 12.11433535477319
SL-8 R/B                
1 21876U 92008B   25274.05665814  .00000116  00000+0  10343-3 0  9999
2 21876  82.9304  26.4908 0033956 218.8195 314.8771 13.75940827687469
SL-8 R/B                
1 21938U 92020B   25274.10100108  .00000010  00000+0 -51039-5 0  9991
2 21938  82.9254 272.2710 0029645  25.8942  38.8289 13.75518338679196
USA 81                  
1 21949U 92023A   25274.09946765  .00000458  00000+0  16238-3 0  9996
2 21949  85.0086 223.4551 0002049 110.7709 249.3703 14.32283981 71946
COSMOS 2219             
1 22219U 92076A   25273.57983053 -.00000168  00000+0 -63303-4 0  9994
2 22219  71.0632 352.7654 0015471  83.3056 276.9827 14.14047917695742
SL-16 R/B               
1 22220U 92076B   25274.15901389 -.00000130  00000+0 -41132-4 0  9998
2 22220  71.0004 164.4176 0013916 329.3471 192.3447 14.16823322699231
COSMOS 2221             
1 22236U 92080A   25273.95595073  .00004801  00000+0  43272-3 0  9999
2 22236  82.5019  71.9533 0014882  14.9034 345.2623 14.95296593756910
SL-16 R/B               
1 22285U 92093B   25273.59911263  .00000074  00000+0  62128-4 0  9990
2 22285  71.0234 340.3333 0005256 216.8312 143.2451 14.15410584690501
COSMOS 2228             
1 22286U 92094A   25274.07501919  .00006807  00000+0  59893-3 0  9993
2 22286  82.5203  30.0217 0019491 117.7742 242.5459 14.96225627752186
SL-16 R/B               
1 22566U 93016B   25274.04764954 -.00000119  00000+0 -36741-4 0  9996
2 22566  71.0079 190.4701 0011519 216.9104 143.1227 14.15269241679589
COSMOS 2242             
1 22626U 93024A   25274.12486252  .00005409  00000+0  48321-3 0  9994
2 22626  82.5179  59.2089 0017839 119.7974 240.5024 14.95625589756538
SL-16 R/B               
1 22803U 93059B   25273.96155655  .00000320  00000+0  18192-3 0  9990
2 22803  70.9929 347.9561 0014819  93.9922 266.2896 14.17194074656908
ARIANE 40 R/B           
1 22830U 93061H   25274.05950977  .00000569  00000+0  22483-3 0  9997
2 22830  98.5165 340.8811 0011361  42.0817 318.1238 14.32724493671245
COSMOS 2278             
1 23087U 94023A   25274.11282637  .00000403  00000+0  23552-3 0  9994
2 23087  71.0538 148.9530 0010914 272.3330  87.6543 14.14327901622242
SL-16 R/B               
1 23088U 94023B   25274.09116043 -.00000115  00000+0 -34633-4 0  9994
2 23088  71.0013  46.0482 0004036 218.6572 141.4262 14.14984373623514
SL-16 R/B               
1 23343U 94074B   25274.09202359  .00001052  00000+0  14845-3 0  9991
2 23343  97.7306 306.2439 0007288  32.3030  25.6668 14.79163205663659
SL-16 R/B               
1 23405U 94077B   25274.20570859  .00000065  00000+0  57625-4 0  9996
2 23405  70.9838 328.0090 0001810 346.8934  13.2141 14.15531342593660
ARIANE 40+ R/B          
1 23561U 95021B   25274.10740161  .00000716  00000+0  24300-3 0  9999
2 23561  98.4735 342.5446 0005655 257.3981 162.2439 14.39610176596284
SL-16 R/B               
1 23705U 95058B   25274.06345453  .00000358  00000+0  20759-3 0  9995
2 23705  71.0217 155.3844 0012685 353.1740   6.9208 14.15466195545261
SL-16 R/B               
1 24298U 96051B   25274.10828696 -.00000040  00000+0  51437-5 0  9995
2 24298  70.7610 153.0127 0015037 359.3710   0.7388 14.12393650499115
ORBVIEW 2 (SEASTAR)     
1 24883U 97037A   25274.00087560  .00000706  00000+0  26262-3 0  9990
2 24883  98.8410  69.2691 0002634 148.6957 211.4385 14.35330839485566
SL-16 R/B               
1 25400U 98043G   25274.10718558  .00000212  00000+0  10755-3 0  9995
2 25400  98.7982 221.5688 0010824 114.5913 245.6395 14.25997443416246
SL-16 R/B               
1 25407U 98045B   25274.08202141  .00000228  00000+0  13936-3 0  9998
2 25407  71.0111 157.2204 0009735 269.2975  90.7033 14.16155544404507
ISS (ZARYA)             
1 25544U 98067A   25274.11280701  .00018412  00000+0  33478-3 0  9993
2 25544  51.6324 142.0598 0001038 182.7689 177.3294 15.49574764531593
CZ-4B R/B               
1 25732U 99025C   25274.08099839  .00000217  00000+0  12558-3 0  9993
2 25732  98.6886 316.9411 0038196  84.1840 328.9887 14.18217084365547
OKEAN-O                 
1 25860U 99039A   25274.11370535  .00001666  00000+0  22732-3 0  9993
2 25860  97.9714 330.4071 0001837 103.7899 256.3517 14.79976702410785
SL-16 R/B               
1 25861U 99039B   25274.11180926  .00001391  00000+0  18434-3 0  9996
2 25861  98.0238 328.2185 0016012  58.2388 302.0382 14.81429343413237
DELTA 2 R/B             
1 25876U 99041E   25274.12438727  .00001694  00000+0  31110-3 0  9993
2 25876  51.7637 218.2250 0504823 237.6424 117.4692 14.11163717340491
HELIOS 1B               
1 25977U 99064A   25274.13284531  .00004626  00000+0  52492-3 0  9997
2 25977  98.1781 166.6626 0001069 128.8024 231.3287 14.86843425661543
TERRA                   
1 25994U 99068A   25274.12588375  .00001117  00000+0  23771-3 0  9992
2 25994  97.9863 328.4310 0001876   6.5136  21.8028 14.60825525371782
SL-16 R/B               
1 26070U 00006B   25273.84418500  .00000381  00000+0  21817-3 0  9993
2 26070  71.0012  73.9260 0014638  61.0938 299.1651 14.15789936325932
TITAN 4B R/B            
1 26474U 00047B   25274.06658889  .00007498  00000+0  48336-3 0  9998
2 26474  67.9892 128.8313 0046515 224.9512 134.7867 15.07920390368838
ENVISAT                 
1 27386U 02009A   25273.75602184  .00000358  00000+0  12976-3 0  9992
2 27386  98.3462 226.3969 0001286  90.6827 331.9959 14.38957302236176
IDEFIX & ARIANE 42P R/B 
1 27422U 02021B   25274.07040252  .00000745  00000+0  30049-3 0  9996
2 27422  98.5661 209.7519 0010887 301.5181  58.4938 14.30868082221192
AQUA                    
1 27424U 02022A   25274.19490924  .00003051  00000+0  62441-3 0  9991
2 27424  98.3903 233.9547 0002097  78.2645 339.0738 14.61541762245434
CZ-4B R/B               
1 27432U 02024C   25274.07085302  .00000133  00000+0  91073-4 0  9991
2 27432  98.9117 323.0525 0051118 115.7961 301.8659 14.14506249206670
MIDORI II (ADEOS-II)    
1 27597U 02056A   25274.11451198  .00000697  00000+0  29261-3 0  9997
2 27597  98.7497 226.7402 0002122  92.9771 267.1653 14.29127445187501
H-2A R/B                
1 27601U 02056E   25274.15587441  .00000750  00000+0  27870-3 0  9992
2 27601  98.2932 235.8496 0069157 277.3522  92.6683 14.33596720191256
CZ-4B R/B               
1 28059U 03049C   25273.96876809  .00001137  00000+0  27283-3 0  9998
2 28059  98.6719 257.8054 0048417   0.6497 359.4753 14.54794772163373
CZ-2C R/B               
1 28222U 04012C   25274.09256606  .00045124  00000+0  81429-3 0  9999
2 28222  97.7548 321.0261 0021161 170.8102 189.3540 15.49368370179455
SL-16 R/B               
1 28353U 04021B   25274.06927727  .00000448  00000+0  25820-3 0  9993
2 28353  71.0009 207.4601 0007163 278.1281  81.9028 14.14567021100264
